[{"OBJECT_NAME":"GAOFEN-9 03","OBJECT_ID":"2020-039A","EPOCH":"2026-03-09T21:55:15.121344","MEAN_MOTION":15.30529116,"ECCENTRICITY":0.0013094,"INCLINATION":97.5219,"RA_OF_ASC_NODE":201.2158,"ARG_OF_PERICENTER":77.4533,"MEAN_ANOMALY":282.8172,"EPHEMERIS_TYPE":0,"CLASSIFICATION_TYPE":"U","NORAD_CAT_ID":45794,"ELEMENT_SET_NO":999,"REV_AT_EPOCH":31856,"BSTAR":0.00039258132,"MEAN_MOTION_DOT":0.00011544,"MEAN_MOTION_DDOT":0},{"OBJECT_NAME":"STARLINK-33999","OBJECT_ID":"2025-093X","EPOCH":"2026-03-09T08:42:12.212640","MEAN_MOTION":15.27611111,"ECCENTRICITY":0.00033444,"INCLINATION":43.0059,"RA_OF_ASC_NODE":79.5866,"ARG_OF_PERICENTER":295.8135,"MEAN_ANOMALY":64.2372,"EPHEMERIS_TYPE":0,"CLASSIFICATION_TYPE":"U","NORAD_CAT_ID":63857,"ELEMENT_SET_NO":999,"REV_AT_EPOCH":4792,"BSTAR":0.00096055704,"MEAN_MOTION_DOT":0.00026292,"MEAN_MOTION_DDOT":0}]
